NORAD_CAT_ID,OBJECT_NAME,OBJECT_TYPE,EPOCH,MEAN_MOTION,ECCENTRICITY,INCLINATION,RA_OF_ASC_NODE,ARG_OF_PERICENTER,MEAN_ANOMALY,BSTAR,MEAN_MOTION_DOT,MEAN_MOTION_DDOT,TLE_LINE0,TLE_LINE1,TLE_LINE2,SEMIMAJOR_AXIS,PERIOD,APOGEE,PERIGEE,DECAYED
51804.0,STARLINK-3601,PAYLOAD,2022-03-19 14:00:01,15.73254215,0.0001029,53.2205,34.974000000000004,54.0451,79.2926,-0.0005771,-0.0008102,0.0,0 STARLINK-3601,1 51804U 22017AN  22078.58334491 -.00081020  00000-0 -57710-3 0  9992,2 51804  53.2205  34.9740 0001029  54.0451  79.2926 15.73254215  3693,6727.741,91.53,350.298,348.913,0.0
51804.0,STARLINK-3601,PAYLOAD,2022-03-19 20:00:01,15.73193737,0.0001075,53.2206,33.7359,66.9062,43.1536,0.00050441,0.00070749,0.0,0 STARLINK-3601,1 51804U 22017AN  22078.83334491  .00070749  00000-0  50441-3 0  9998,2 51804  53.2206  33.7359 0001075  66.9062  43.1536 15.73193737  4776,6727.913000000001,91.534,350.501,349.055,0.0
51804.0,STARLINK-3601,PAYLOAD,2022-03-19 22:00:01,15.73235132,0.0001051,53.2208,33.324,67.0922,155.2568,3.4e-06,-1.42e-06,0.0,0 STARLINK-3601,1 51804U 22017AN  22078.91668981 -.00000142  00000-0  34000-5 0  9997,2 51804  53.2208  33.3240 0001051  67.0922 155.2568 15.73235132  3702,6727.795,91.531,350.367,348.95300000000015,0.0
51804.0,STARLINK-3601,PAYLOAD,2022-03-20 04:00:00,15.73217319,0.0001183,53.2207,32.0887,52.4386,146.57,-0.00024187,-0.0003445,0.0,0 STARLINK-3601,1 51804U 22017AN  22079.16667824 -.00034450  00000-0 -24187-3 0  9993,2 51804  53.2207  32.0887 0001183  52.4386 146.5700 15.73217319  4824,6727.846,91.532,350.50699999999995,348.915,0.0
51804.0,STARLINK-3601,PAYLOAD,2022-03-20 12:00:00,15.73252479,0.0001085999999999,53.2204,30.4388,53.6453,234.2912,-0.00044044,-0.00062114,0.0,0 STARLINK-3601,1 51804U 22017AN  22079.50001157 -.00062114  00000-0 -44044-3 0  9994,2 51804  53.2204  30.4388 0001086  53.6453 234.2912 15.73252479  4870,6727.746,91.53,350.341,348.88,0.0
51804.0,STARLINK-3601,PAYLOAD,2022-03-20 14:00:01,15.73250669,0.000108,53.2206,30.0259,59.1868,340.992,-0.00050894,-0.00071593,0.0,0 STARLINK-3601,1 51804U 22017AN  22079.58334491 -.00071593  00000-0 -50894-3 0  9993,2 51804  53.2206  30.0259 0001080  59.1868 340.9920 15.73250669  3692,6727.751,91.53,350.342,348.889,0.0
51804.0,STARLINK-3601,PAYLOAD,2022-03-20 22:00:01,15.73215984,0.0001333,53.2207,28.3763,71.6226,57.5819,-0.00043748,-0.00061611,0.0,0 STARLINK-3601,1 51804U 22017AN  22079.91668981 -.00061611  00000-0 -43748-3 0  9994,2 51804  53.2207  28.3763 0001333  71.6226  57.5819 15.73215984  3713,6727.85,91.532,350.611,348.8180000000001,0.0
51804.0,STARLINK-3601,PAYLOAD,2022-03-21 12:00:00,15.73213319,0.0001375,53.2205,25.4911,67.3694,127.3332,-7.4317e-05,-0.00011042,0.0,0 STARLINK-3601,1 51804U 22017AN  22080.50001157 -.00011042  00000-0 -74317-4 0  9997,2 51804  53.2205  25.4911 0001375  67.3694 127.3332 15.73213319  5034,6727.857,91.532,350.647,348.797,0.0
51804.0,STARLINK-3601,PAYLOAD,2022-03-21 14:00:01,15.73218803,0.0001311,53.2207,25.0782,70.3877,236.5481,-0.00015414,-0.00022213,0.0,0 STARLINK-3601,1 51804U 22017AN  22080.58334491 -.00022213  00000-0 -15414-3 0  9999,2 51804  53.2207  25.0782 0001311  70.3877 236.5481 15.73218803  3696,6727.842,91.532,350.589,348.825,0.0
51804.0,STARLINK-3601,PAYLOAD,2022-03-21 22:00:00,15.73186575,0.0001269,53.2211,23.4286,72.1704,323.6948,8.392799999999999e-05,0.00011168,0.0,0 STARLINK-3601,1 51804U 22017AN  22080.91667824  .00011168  00000-0  83928-4 0  9996,2 51804  53.2211  23.4286 0001269  72.1704 323.6948 15.73186575  3699,6727.933000000001,91.534,350.652,348.945,0.0
51804.0,STARLINK-3601,PAYLOAD,2022-03-22 14:00:01,15.73197662,0.0001383,53.2208,20.1301,70.2432,143.4791,-7.1622e-05,-0.00010658,0.0,0 STARLINK-3601,1 51804U 22017AN  22081.58334491 -.00010658  00000-0 -71622-4 0  9994,2 51804  53.2208  20.1301 0001383  70.2432 143.4791 15.73197662  3706,6727.901999999999,91.533,350.69699999999995,348.836,0.0
51804.0,STARLINK-3601,PAYLOAD,2022-03-22 20:00:01,15.73190934,0.0001457,53.2207,18.8929,78.4051,112.0061,0.00044546,0.00062338,0.0,0 STARLINK-3601,1 51804U 22017AN  22081.83334491  .00062338  00000-0  44546-3 0  9996,2 51804  53.2207  18.8929 0001457  78.4051 112.0061 15.73190934  5242,6727.920999999999,91.534,350.766,348.806,0.0
51804.0,STARLINK-3601,PAYLOAD,2022-03-22 22:00:01,15.73217093,0.0001450999999999,53.2207,18.481,75.7689,226.9344,0.00017035,0.00023371,0.0,0 STARLINK-3601,1 51804U 22017AN  22081.91668981  .00023371  00000-0  17035-3 0  9996,2 51804  53.2207  18.4810 0001451  75.7689 226.9344 15.73217093  3702,6727.846,91.532,350.68800000000016,348.735,0.0
51804.0,STARLINK-3601,PAYLOAD,2022-03-23 12:00:00,15.73304637,0.0001126,53.2204,15.5949,69.6571,298.666,-0.0011057,-0.00153678,0.0,0 STARLINK-3601,1 51804U 22017AN  22082.50001157 -.00153678  00000-0 -11057-2 0  9991,2 51804  53.2204  15.5949 0001126  69.6571 298.6660 15.73304637  5352,6727.597,91.527,350.219,348.704,0.0
51804.0,STARLINK-3601,PAYLOAD,2022-03-23 14:00:01,15.73255808,0.0001017,53.2206,15.182,71.5991,48.9895,-0.00068323,-0.00095647,0.0,0 STARLINK-3601,1 51804U 22017AN  22082.58334491 -.00095647  00000-0 -68323-3 0  9999,2 51804  53.2206  15.1820 0001017  71.5991  48.9895 15.73255808  3691,6727.736,91.53,350.285,348.917,0.0
51804.0,STARLINK-3601,PAYLOAD,2022-03-23 20:00:01,15.73174881,9.57e-05,53.2208,13.9445,74.7569,22.555,0.0003413,0.00047498,0.0,0 STARLINK-3601,1 51804U 22017AN  22082.83334491  .00047498  00000-0  34130-3 0  9995,2 51804  53.2208  13.9445 0000957  74.7569  22.5550 15.73174881  5408,6727.967,91.535,350.476,349.18800000000016,0.0
51804.0,STARLINK-3601,PAYLOAD,2022-03-23 22:00:00,15.73190625,9.52e-05,53.2208,13.5328,70.0326,139.5029,0.00019644,0.00027026,0.0,0 STARLINK-3601,1 51804U 22017AN  22082.91667824  .00027026  00000-0  19644-3 0  9991,2 51804  53.2208  13.5328 0000952  70.0326 139.5029 15.73190625  3715,6727.922,91.534,350.427,349.146,0.0
51804.0,STARLINK-3601,PAYLOAD,2022-03-24 14:00:01,15.73181401,0.0001126,53.2205,10.2336,73.0386,314.3889,0.0003982,0.0005559,0.0,0 STARLINK-3601,1 51804U 22017AN  22083.58334491  .00055590  00000-0  39820-3 0  9991,2 51804  53.2205  10.2336 0001126  73.0386 314.3889 15.73181401  3683,6727.948,91.534,350.571,349.056,0.0
51804.0,STARLINK-3601,PAYLOAD,2022-03-24 20:00:01,15.73237506,0.0001276,53.2206,8.9965,78.1989,285.9112,-0.00049612,-0.00069783,0.0,0 STARLINK-3601,1 51804U 22017AN  22083.83334491 -.00069783  00000-0 -49612-3 0  9990,2 51804  53.2206   8.9965 0001276  78.1989 285.9112 15.73237506  5566,6727.788000000001,91.531,350.51199999999994,348.795,0.0
51804.0,STARLINK-3601,PAYLOAD,2022-03-24 22:00:00,15.73218443,0.0001307,53.2205,8.5848,74.9998,41.3534,-0.00035874,-0.00050703,0.0,0 STARLINK-3601,1 51804U 22017AN  22083.91667824 -.00050703  00000-0 -35874-3 0  9995,2 51804  53.2205   8.5848 0001307  74.9998  41.3534 15.73218443  3705,6727.843000000003,91.532,350.587,348.82800000000015,0.0
51804.0,STARLINK-3601,PAYLOAD,2022-03-25 04:00:00,15.73164472,0.0001395,53.2204,7.3493,69.6511,23.4038,0.00050585,0.00070865,0.0,0 STARLINK-3601,1 51804U 22017AN  22084.16667824  .00070865  00000-0  50585-3 0  9998,2 51804  53.2204   7.3493 0001395  69.6511  23.4038 15.73164472  5610,6727.996,91.535,350.8,348.923,0.0
51804.0,STARLINK-3601,PAYLOAD,2022-03-25 12:00:00,15.7323504,0.0001095,53.2203,5.6982,73.8393,108.1358,-0.00069048,-0.00096561,0.0,0 STARLINK-3601,1 51804U 22017AN  22084.50001157 -.00096561  00000-0 -69048-3 0  9994,2 51804  53.2203   5.6982 0001095  73.8393 108.1358 15.73235040  5666,6727.795,91.531,350.397,348.9240000000001,0.0
51804.0,STARLINK-3601,PAYLOAD,2022-03-25 14:00:01,15.7319486,0.0001002,53.2203,5.2854,77.2279,216.9952,-0.0003028,-0.00042888,0.0,0 STARLINK-3601,1 51804U 22017AN  22084.58334491 -.00042888  00000-0 -30280-3 0  9991,2 51804  53.2203   5.2854 0001002  77.2279 216.9952 15.73194860  3692,6727.91,91.533,350.449,349.101,0.0
51804.0,STARLINK-3601,PAYLOAD,2022-03-25 20:00:01,15.73162943,9.17e-05,53.2207,4.0483,77.0763,193.8222,8.7976e-05,0.00011725,0.0,0 STARLINK-3601,1 51804U 22017AN  22084.83334491  .00011725  00000-0  87976-4 0  9998,2 51804  53.2207   4.0483 0000917  77.0763 193.8222 15.73162943  5716,6728.001,91.535,350.483,349.249,0.0
51804.0,STARLINK-3601,PAYLOAD,2022-03-25 22:00:01,15.73162393,8.88e-05,53.2207,3.6366,70.7313,312.4553,0.00010079,0.00013526,0.0,0 STARLINK-3601,1 51804U 22017AN  22084.91668981  .00013526  00000-0  10079-3 0  9991,2 51804  53.2207   3.6366 0000888  70.7313 312.4553 15.73162393  3701,6728.002,91.535,350.465,349.27,0.0
51804.0,STARLINK-3601,PAYLOAD,2022-03-26 12:00:00,15.73224604,8.65e-05,53.2206,0.75,69.5673,19.1335,0.00015477,0.00021178,0.0,0 STARLINK-3601,1 51804U 22017AN  22085.50001157  .00021178  00000-0  15477-3 0  9992,2 51804  53.2206   0.7500 0000865  69.5673  19.1335 15.73224604  5826,6727.825,91.532,350.272,349.108,0.0
51804.0,STARLINK-3601,PAYLOAD,2022-03-26 14:00:01,15.7321462,8.62e-05,53.2205,0.3372,72.7146,128.2125,0.00011705,0.00015849,0.0,0 STARLINK-3601,1 51804U 22017AN  22085.58334491  .00015849  00000-0  11705-3 0  9998,2 51804  53.2205   0.3372 0000862  72.7146 128.2125 15.73214620  3673,6727.853,91.532,350.298,349.139,0.0
51804.0,STARLINK-3601,PAYLOAD,2022-03-26 20:00:01,15.7334253,9.63e-05,53.2194,359.0984,80.8777,96.7468,-0.0017712,-0.00243605,0.0,0 STARLINK-3601,1 51804U 22017AN  22085.83334491 -.00243605  00000-0 -17712-2 0  9994,2 51804  53.2194 359.0984 0000963  80.8777  96.7468 15.73342530  5870,6727.489000000001,91.525,350.00199999999984,348.706,0.0
51804.0,STARLINK-3601,PAYLOAD,2022-03-26 22:00:00,15.73448608,8.36e-05,53.2192,358.6865,66.9343,222.9221,-0.0044499,-0.00589442,0.0,0 STARLINK-3601,1 51804U 22017AN  22085.91667824 -.00589442  00000-0 -44499-2 0  9996,2 51804  53.2192 358.6865 0000836  66.9343 222.9221 15.73448608  3707,6727.186,91.519,349.61400000000015,348.48900000000015,0.0
